SKYSAT-C8               
1 42990U 17068D   26087.88138704  .00014274  00000+0  41895-3 0  9995
2 42990  97.4383 223.5992 0001211  95.4936 264.6445 15.35265023469982
